IRIDIUM 155             
1 43573U 18061E   25245.52526025 -.00000002  00000+0 -78905-5 0  9990
2 43573  86.4041 176.8886 0002174  90.3221 269.8224 14.34217544372125
IRIDIUM 154             
1 43574U 18061F   25245.22717019  .00000592  00000+0  20444-3 0  9998
2 43574  86.4042 177.1318 0002246  83.1776 276.9676 14.34221904372132
IRIDIUM 163             
1 43575U 18061G   25245.55697280 -.00000040  00000+0 -21423-4 0  9991
2 43575  86.4042 176.9189 0001929  86.0203 274.1213 14.34217255372153
IRIDIUM 156             
1 43576U 18061H   25245.32229719 -.00000002  00000+0 -78142-5 0  9994
2 43576  86.4042 177.0238 0002318  90.1873 269.9588 14.34217606372116
IRIDIUM 164             
1 43577U 18061J   25245.51257588 -.00000088  00000+0 -38334-4 0  9993
2 43577  86.4044 176.9801 0002260  80.7239 279.4212 14.34216764372181
IRIDIUM 159             
1 43578U 18061K   25245.06223401  .00000530  00000+0  18200-3 0  9990
2 43578  86.4040 177.1107 0002153  78.3355 281.8083 14.34224627372082
IRIDIUM 180             
1 43922U 19002A   25245.55012582  .00000048  00000+0  10145-4 0  9994
2 43922  86.3950 113.8703 0001992  86.5509 273.5915 14.34217859347763
IRIDIUM 176             
1 43923U 19002B   25245.58761911  .00001705  00000+0  26652-3 0  9995
2 43923  86.6075 113.8400 0002503 100.9446 259.2052 14.72256187356930
IRIDIUM 168             
1 43924U 19002C   25245.54378402 -.00000041  00000+0 -21686-4 0  9998
2 43924  86.3953 113.9419 0001975  86.2183 273.9238 14.34217064347747
IRIDIUM 173             
1 43925U 19002D   25245.60086502  .00000004  00000+0 -56575-5 0  9997
2 43925  86.3953 113.8188 0001836  90.2117 269.9290 14.34218132347737
IRIDIUM 169             
1 43926U 19002E   25245.43045992  .00000475  00000+0  14871-3 0  9999
2 43926  86.4275 145.5018 0002377 116.9350 243.2092 14.38611179348857
IRIDIUM 172             
1 43927U 19002F   25245.59452421 -.00000011  00000+0 -10950-4 0  9999
2 43927  86.3949 113.8285 0001855  81.7201 278.4206 14.34217213347744
IRIDIUM 175             
1 43928U 19002G   25245.58271623  .00000758  00000+0  11622-3 0  9994
2 43928  86.1457  61.9285 0003132  91.1458 269.0117 14.72248559356925
IRIDIUM 171             
1 43929U 19002H   25245.36619094  .00000372  00000+0  12584-3 0  9999
2 43929  86.3963 114.1987 0002409  84.6681 275.4790 14.34219266347706
IRIDIUM 170             
1 43930U 19002J   25245.59379740  .00001625  00000+0  25369-3 0  9994
2 43930  86.6073 113.8416 0002403  88.8875 271.2617 14.72260917356940
IRIDIUM 167             
1 43931U 19002K   25245.56915511 -.00000007  00000+0 -95869-5 0  9993
2 43931  86.3949 113.8587 0002400  90.6469 269.5002 14.34217344347735
IRIDIUM 181             
1 56726U 23068S   25245.52813352  .00000668  00000+0  19249-3 0  9999
2 56726  86.4581 176.9609 0002755  75.2811 284.8696 14.43317521120941
IRIDIUM 177             
1 56727U 23068T   25245.61012142  .00002305  00000+0  29977-3 0  9997
2 56727  86.1937 105.3821 0002593  86.1982 273.9535 14.80248512123821
IRIDIUM 174             
1 56728U 23068U   25245.58143137  .00001750  00000+0  27349-3 0  9997
2 56728  86.6082 113.9649 0001911  92.1511 267.9925 14.72264314123701
IRIDIUM 178             
1 56729U 23068V   25245.46402564  .00002796  00000+0  36438-3 0  9997
2 56729  86.6593 145.6066 0002495  89.8359 270.3148 14.80245353123802
IRIDIUM 179             
1 56730U 23068W   25245.45866540  .00003023  00000+0  39427-3 0  9991
2 56730  86.6843 153.7125 0002707  92.8751 267.2781 14.80241728123804
